{
    "links": {
        "self": "http://www.neowsapp.com/rest/v1/neo/3335421?api_key=iIulBulltgU6a56xZRHN4H3l9WmuAYTsLGpBGhQ2"
    },
    "id": "3335421",
    "neo_reference_id": "3335421",
    "name": "(2006 LD)",
    "designation": "2006 LD",
    "nasa_jpl_url": "http://ssd.jpl.nasa.gov/sbdb.cgi?sstr=3335421",
    "absolute_magnitude_h": 23.5,
    "estimated_diameter": {
        "kilometers": {
            "estimated_diameter_min": 0.0530340723,
            "estimated_diameter_max": 0.1185877909
        },
        "meters": {
            "estimated_diameter_min": 53.0340723319,
            "estimated_diameter_max": 118.5877908577
        },
        "miles": {
            "estimated_diameter_min": 0.0329538346,
            "estimated_diameter_max": 0.0736870142
        },
        "feet": {
            "estimated_diameter_min": 173.9963058693,
            "estimated_diameter_max": 389.0675677576
        }
    },
    "is_potentially_hazardous_asteroid": false,
    "close_approach_data": [
        {
            "close_approach_date": "2006-05-30",
            "close_approach_date_full": "2006-May-30 04:11",
            "epoch_date_close_approach": 1148962260000,
            "relative_velocity": {
                "kilometers_per_second": "12.5602975614",
                "kilometers_per_hour": "45217.0712209867",
                "miles_per_hour": "28096.1296150626"
            },
            "miss_distance": {
                "astronomical": "0.0988459763",
                "lunar": "38.4510847807",
                "kilometers": "14787147.512550481",
                "miles": "9188307.3968233978"
            },
            "orbiting_body": "Earth"
        }
    ],
    "orbital_data": {
        "orbit_id": "6",
        "orbit_determination_date": "2017-04-06 09:08:30",
        "first_observation_date": "2006-06-01",
        "last_observation_date": "2006-06-02",
        "data_arc_in_days": 1,
        "observations_used": 15,
        "orbit_uncertainty": "9",
        "minimum_orbit_intersection": ".0941822",
        "jupiter_tisserand_invariant": "5.107",
        "epoch_osculation": "2453888.5",
        "eccentricity": ".1007065774264493",
        "semi_major_axis": "1.230945571540539",
        "inclination": "24.54752567744659",
        "ascending_node_longitude": "67.77537746139198",
        "orbital_period": "498.834752767426",
        "perihelion_distance": "1.106981256032447",
        "perihelion_argument": "187.6237408394452",
        "aphelion_distance": "1.354909887048632",
        "perihelion_time": "2453895.225034032355",
        "mean_anomaly": "355.1466648259437",
        "mean_motion": ".7216818756167224",
        "equinox": "J2000",
        "orbit_class": {
            "orbit_class_type": "AMO",
            "orbit_class_description": "Near-Earth asteroid orbits similar to that of 1221 Amor",
            "orbit_class_range": "1.017 AU < q (perihelion) < 1.3 AU"
        }
    },
    "is_sentry_object": false
}